OBJECT_NAME,OBJECT_ID,EPOCH,MEAN_MOTION,ECCENTRICITY,INCLINATION,RA_OF_ASC_NODE,ARG_OF_PERICENTER,MEAN_ANOMALY,EPHEMERIS_TYPE,CLASSIFICATION_TYPE,NORAD_CAT_ID,ELEMENT_SET_NO,REV_AT_EPOCH,BSTAR,MEAN_MOTION_DOT,MEAN_MOTION_DDOT
ONEWEB-0597,2022-166X,2026-07-15T12:32:16.617984,13.21824205,.00019876,87.9233,238.3480,94.7473,265.3888,0,U,54663,999,17528,.15816495E-3,.78E-6,0
ONEWEB-0600,2022-166Y,2026-07-15T12:05:39.378336,13.21825515,.00019745,87.9236,238.3427,102.1132,258.0223,0,U,54664,999,17525,.3218575E-4,.26E-6,0
ONEWEB-0601,2022-166Z,2026-07-15T11:53:31.809984,13.21825180,.00018151,87.9234,238.3603,95.0094,265.1247,0,U,54665,999,17544,-.38222035E-4,-.3E-7,0
ONEWEB-0602,2022-166AA,2026-07-15T12:52:51.891744,13.21823924,.00019384,87.9232,238.3581,101.9484,258.1867,0,U,54666,999,17529,.21100613E-3,.1E-5,0
ONEWEB-0603,2022-166AB,2026-07-15T13:01:20.272800,13.21823847,.00019783,87.9243,238.3169,96.4083,263.7277,0,U,54667,999,17522,.21482149E-3,.102E-5,0
ONEWEB-0604,2022-166AC,2026-07-15T03:39:22.056768,13.21823755,.00021209,87.9244,238.4103,97.3522,262.7853,0,U,54668,999,17513,.15091343E-3,.75E-6,0
ONEWEB-0605,2022-166AD,2026-07-15T12:34:41.662848,13.21824072,.00019072,87.9235,238.3471,78.0609,282.0738,0,U,54669,999,17525,.17770626E-3,.86E-6,0
ONEWEB-0606,2022-166AE,2026-07-15T13:06:11.386368,13.21825238,.0002183,87.9233,238.3553,99.2838,260.8542,0,U,54670,999,17531,.12077E-3,.63E-6,0
ONEWEB-0607,2022-166AF,2026-07-15T12:17:45.921984,13.21825833,.00019005,87.9241,238.3348,97.2878,262.8472,0,U,54671,999,17528,.89821136E-4,.5E-6,0
ONEWEB-0608,2022-166AG,2026-07-15T12:27:25.305696,13.21823784,.00017106,87.9243,238.3309,85.4497,274.6833,0,U,54672,999,17529,-.17702508E-4,.6E-7,0
ONEWEB-0610,2022-166AH,2026-07-15T11:58:23.073024,13.21827028,.00014934,87.9235,238.3465,93.0124,267.1181,0,U,54673,999,17519,.27642488E-3,.127E-5,0
ONEWEB-0611,2022-166AJ,2026-07-15T11:48:39.658752,13.21825932,.00022063,87.9234,238.3434,97.7501,262.3883,0,U,54674,999,17518,-.11035617E-3,-.33E-6,0
ONEWEB-0612,2022-166AK,2026-07-15T12:08:03.855552,13.21826631,.00019198,87.9246,238.3394,94.1816,265.9538,0,U,54675,999,17517,.11704315E-3,.61E-6,0
ONEWEB-0615,2022-166AL,2026-07-15T11:38:58.803648,13.21823373,.00022486,87.9237,238.3554,103.5117,256.6268,0,U,54676,999,17518,.2895904E-4,.25E-6,0
ONEWEB-0655,2022-166AM,2026-07-15T12:54:04.527360,13.21823888,.00018955,87.9233,238.3460,100.3082,259.8266,0,U,54677,999,17518,.23752587E-3,.111E-5,0
ONEWEB-0659,2022-166AN,2026-07-15T11:29:18.043584,13.21824891,.00021613,87.9230,238.3575,94.0130,266.1251,0,U,54678,999,17526,.59086861E-4,.37E-6,0
ONEWEB-0685,2022-166AP,2026-07-15T11:28:45.296256,13.21848035,.00017415,87.9229,238.3490,91.3951,268.7382,0,U,54679,999,17515,.20205085E-4,.21E-6,0
ONEWEB-0712,2022-166AQ,2026-07-15T11:35:19.917024,13.16595810,.00018347,87.9080,223.1542,106.7004,253.4328,0,U,54680,999,17578,.81914654E-4,.44E-6,0
ONEWEB-0714,2022-166AR,2026-07-15T11:36:35.144640,13.21826094,.00020538,87.9233,238.3461,105.3319,254.8042,0,U,54681,999,17527,.31611993E-4,.26E-6,0
ONEWEB-0532,2023-004A,2026-07-15T17:40:23.049696,13.17649064,.0001948,87.9143,0.1841,82.1985,277.9368,0,U,55140,999,17134,.20322E-3,.92E-6,0
ONEWEB-0533,2023-004B,2026-07-15T19:37:23.148192,13.12441790,.0001664,87.8967,344.9775,96.3907,263.7411,0,U,55141,999,17181,-.95608E-3,-.331E-5,0
ONEWEB-0541,2023-004C,2026-07-15T19:02:47.153184,13.11416873,.0002023,87.8894,15.3637,88.8875,271.2485,0,U,55142,999,16969,.15819E-2,.573E-5,0
ONEWEB-0543,2023-004D,2026-07-15T18:27:48.377088,13.18686523,.0001892,87.9188,329.7840,104.8364,255.2977,0,U,55143,999,17346,-.28907E-5,.12E-6,0
ONEWEB-0544,2023-004E,2026-07-15T20:07:21.025920,13.18687278,.0002061,87.9188,329.7700,101.4978,258.6385,0,U,55144,999,17347,-.92803E-4,-.24E-6,0
ONEWEB-0560,2023-004F,2026-07-15T18:08:23.072640,13.18684536,.0002084,87.9189,329.7759,104.1196,256.0168,0,U,55145,999,17347,.22813E-5,.14E-6,0
ONEWEB-0565,2023-004G,2026-07-15T19:47:56.332320,13.18686963,.0002294,87.9180,329.7874,94.0530,266.0864,0,U,55146,999,17347,-.10707E-3,-.29E-6,0
ONEWEB-0567,2023-004H,2026-07-15T19:38:13.108128,13.18687039,.0002266,87.9188,329.7755,98.7210,261.4179,0,U,55147,999,17347,-.12892E-3,-.38E-6,0
ONEWEB-0569,2023-004J,2026-07-15T19:16:40.191744,13.13470947,.0002702,87.8990,314.5271,111.4880,248.6537,0,U,55148,999,17393,-.40042E-3,-.133E-5,0
ONEWEB-0570,2023-004K,2026-07-15T19:26:04.730208,13.18686469,.0002061,87.9187,329.7751,88.1821,271.9547,0,U,55149,999,17346,-.96758E-4,-.25E-6,0
ONEWEB-0571,2023-004L,2026-07-15T19:16:23.149344,13.18685989,.0003155,87.9186,329.7756,100.0173,260.1316,0,U,55150,999,17347,.59875E-4,.37E-6,0
