ONEWEB-0597             
1 54663U 22166X   26196.52241456  .00000078  00000+0  15816-3 0  9992
2 54663  87.9233 238.3480 0001987  94.7473 265.3888 13.21824205175286
ONEWEB-0600             
1 54664U 22166Y   26196.50392799  .00000026  00000+0  32186-4 0  9991
2 54664  87.9236 238.3427 0001974 102.1132 258.0223 13.21825515175257
ONEWEB-0601             
1 54665U 22166Z   26196.49550706 -.00000003  00000+0 -38222-4 0  9998
2 54665  87.9234 238.3603 0001815  95.0094 265.1247 13.21825180175447
ONEWEB-0602             
1 54666U 22166AA  26196.53671171  .00000100  00000+0  21101-3 0  9997
2 54666  87.9232 238.3581 0001938 101.9484 258.1867 13.21823924175294
ONEWEB-0603             
1 54667U 22166AB  26196.54259575  .00000102  00000+0  21482-3 0  9993
2 54667  87.9243 238.3169 0001978  96.4083 263.7277 13.21823847175220
ONEWEB-0604             
1 54668U 22166AC  26196.15233862  .00000075  00000+0  15091-3 0  9990
2 54668  87.9244 238.4103 0002120  97.3522 262.7853 13.21823755175136
ONEWEB-0605             
1 54669U 22166AD  26196.52409332  .00000086  00000+0  17771-3 0  9998
2 54669  87.9235 238.3471 0001907  78.0609 282.0738 13.21824072175251
ONEWEB-0606             
1 54670U 22166AE  26196.54596512  .00000063  00000+0  12077-3 0  9998
2 54670  87.9233 238.3553 0002183  99.2838 260.8542 13.21825238175317
ONEWEB-0607             
1 54671U 22166AF  26196.51233706  .00000050  00000+0  89821-4 0  9997
2 54671  87.9241 238.3348 0001900  97.2878 262.8472 13.21825833175288
ONEWEB-0608             
1 54672U 22166AG  26196.51904289  .00000006  00000+0 -17703-4 0  9991
2 54672  87.9243 238.3309 0001710  85.4497 274.6833 13.21823784175299
ONEWEB-0610             
1 54673U 22166AH  26196.49887816  .00000127  00000+0  27642-3 0  9990
2 54673  87.9235 238.3465 0001493  93.0124 267.1181 13.21827028175191
ONEWEB-0611             
1 54674U 22166AJ  26196.49212568 -.00000033  00000+0 -11036-3 0  9995
2 54674  87.9234 238.3434 0002206  97.7501 262.3883 13.21825932175187
ONEWEB-0612             
1 54675U 22166AK  26196.50560018  .00000061  00000+0  11704-3 0  9995
2 54675  87.9246 238.3394 0001919  94.1816 265.9538 13.21826631175178
ONEWEB-0615             
1 54676U 22166AL  26196.48540282  .00000025  00000+0  28959-4 0  9995
2 54676  87.9237 238.3554 0002248 103.5117 256.6268 13.21823373175180
ONEWEB-0655             
1 54677U 22166AM  26196.53755240  .00000111  00000+0  23753-3 0  9996
2 54677  87.9233 238.3460 0001895 100.3082 259.8266 13.21823888175180
ONEWEB-0659             
1 54678U 22166AN  26196.47868106  .00000037  00000+0  59087-4 0  9993
2 54678  87.9230 238.3575 0002161  94.0130 266.1251 13.21824891175264
ONEWEB-0685             
1 54679U 22166AP  26196.47830204  .00000021  00000+0  20205-4 0  9995
2 54679  87.9229 238.3490 0001741  91.3951 268.7382 13.21848035175150
ONEWEB-0712             
1 54680U 22166AQ  26196.48286941  .00000044  00000+0  81915-4 0  9991
2 54680  87.9080 223.1542 0001834 106.7004 253.4328 13.16595810175784
ONEWEB-0714             
1 54681U 22166AR  26196.48374010  .00000026  00000+0  31612-4 0  9996
2 54681  87.9233 238.3461 0002053 105.3319 254.8042 13.21826094175270
ONEWEB-0532             
1 55140U 23004A   26196.73637789  .00000092  00000+0  20322-3 0  9990
2 55140  87.9143   0.1841 0001948  82.1985 277.9368 13.17649064171347
ONEWEB-0533             
1 55141U 23004B   26196.81762903 -.00000331  00000+0 -95608-3 0  9994
2 55141  87.8967 344.9775 0001664  96.3907 263.7411 13.12441790171817
ONEWEB-0541             
1 55142U 23004C   26196.79360131  .00000573  00000+0  15819-2 0  9990
2 55142  87.8894  15.3637 0002023  88.8875 271.2485 13.11416873169694
ONEWEB-0543             
1 55143U 23004D   26196.76930992  .00000012  00000+0 -28907-5 0  9990
2 55143  87.9188 329.7840 0001892 104.8364 255.2977 13.18686523173461
ONEWEB-0544             
1 55144U 23004E   26196.83843780 -.00000024  00000+0 -92803-4 0  9996
2 55144  87.9188 329.7700 0002061 101.4978 258.6385 13.18687278173479
ONEWEB-0560             
1 55145U 23004F   26196.75582260  .00000014  00000+0  22813-5 0  9993
2 55145  87.9189 329.7759 0002084 104.1196 256.0168 13.18684536173477
ONEWEB-0565             
1 55146U 23004G   26196.82495755 -.00000029  00000+0 -10707-3 0  9999
2 55146  87.9180 329.7874 0002294  94.0530 266.0864 13.18686963173479
ONEWEB-0567             
1 55147U 23004H   26196.81820727 -.00000038  00000+0 -12892-3 0  9997
2 55147  87.9188 329.7755 0002266  98.7210 261.4179 13.18687039173474
ONEWEB-0569             
1 55148U 23004J   26196.80324296 -.00000133  00000+0 -40042-3 0  9991
2 55148  87.8990 314.5271 0002702 111.4880 248.6537 13.13470947173930
ONEWEB-0570             
1 55149U 23004K   26196.80977697 -.00000025  00000+0 -96758-4 0  9997
2 55149  87.9187 329.7751 0002061  88.1821 271.9547 13.18686469173465
ONEWEB-0571             
1 55150U 23004L   26196.80304571  .00000037  00000+0  59875-4 0  9994
2 55150  87.9186 329.7756 0003155 100.0173 260.1316 13.18685989173471
